GLOBALSTAR M001         
1 25162U 98008A   25285.49441834 -.00000050  00000+0  36087-3 0  9992
2 25162  52.0062 351.7899 0001836 136.8774 325.0420 12.38220231258240
GLOBALSTAR M004         
1 25163U 98008B   25285.62551596 -.00000083  00000+0  11785-3 0  9999
2 25163  52.0010  55.8703 0003317 177.7086 195.6558 12.63405236276539
GLOBALSTAR M002         
1 25164U 98008C   25285.54741776 -.00000049  00000+0  53954-3 0  9998
2 25164  52.0021 305.9451 0001447   5.8918 354.1919 11.61512449197704
GLOBALSTAR M003         
1 25165U 98008D   25285.49349675 -.00000183  00000+0 -99387-3 0  9995
2 25165  51.9934 203.6270 0007807 163.5655   7.6554 12.12055929247449
GLOBALSTAR M014         
1 25306U 98023A   25285.56055862 -.00000051  00000+0  48898-3 0  9993
2 25306  51.9827 226.6648 0000360 194.8740 335.9574 11.65482567204856
GLOBALSTAR M006         
1 25307U 98023B   25285.52450338 -.00000039  00000+0  75779-3 0  9991
2 25307  51.9932 283.6169 0003134 322.6719 183.4466 11.58176903230428
GLOBALSTAR M015         
1 25308U 98023C   25285.58256635 -.00000042  00000+0  70783-3 0  9996
2 25308  51.9854  27.3195 0011854 284.0423  89.7405 11.48859224207579
GLOBALSTAR M008         
1 25309U 98023D   25285.59123133 -.00000053  00000+0  33923-3 0  9991
2 25309  51.9961 217.6679 0003302  61.8194 109.7595 12.36073913252366
