<?xml version="1.0" encoding="UTF-8"?>
<ndm xmlns:xsi="http://www.w3.org/2001/XMLSchema-instance" xsi:noNamespaceSchemaLocation="https://sanaregistry.org/r/ndmxml_unqualified/ndmxml-2.0.0-master-2.0.xsd">
<omm id="CCSDS_OMM_VERS" version="2.0">
<header><CREATION_DATE/><ORIGINATOR/></header><body><segment><metadata><OBJECT_NAME>GLOBALSTAR M001</OBJECT_NAME><OBJECT_ID>1998-008A</OBJECT_ID><CENTER_NAME>EARTH</CENTER_NAME><REF_FRAME>TEME</REF_FRAME><TIME_SYSTEM>UTC</TIME_SYSTEM><MEAN_ELEMENT_THEORY>SGP4</MEAN_ELEMENT_THEORY></metadata><data><meanElements><EPOCH>2025-10-12T11:51:57.744576</EPOCH><MEAN_MOTION>12.38220231</MEAN_MOTION><ECCENTRICITY>.00018364</ECCENTRICITY><INCLINATION>52.0062</INCLINATION><RA_OF_ASC_NODE>351.7899</RA_OF_ASC_NODE><ARG_OF_PERICENTER>136.8774</ARG_OF_PERICENTER><MEAN_ANOMALY>325.0420</MEAN_ANOMALY></meanElements><tleParameters><EPHEMERIS_TYPE>0</EPHEMERIS_TYPE><CLASSIFICATION_TYPE>U</CLASSIFICATION_TYPE><NORAD_CAT_ID>25162</NORAD_CAT_ID><ELEMENT_SET_NO>999</ELEMENT_SET_NO><REV_AT_EPOCH>25824</REV_AT_EPOCH><BSTAR>.36087036E-3</BSTAR><MEAN_MOTION_DOT>-.5E-6</MEAN_MOTION_DOT><MEAN_MOTION_DDOT>0</MEAN_MOTION_DDOT></tleParameters></data></segment></body></omm>
<omm id="CCSDS_OMM_VERS" version="2.0">
<header><CREATION_DATE/><ORIGINATOR/></header><body><segment><metadata><OBJECT_NAME>GLOBALSTAR M004</OBJECT_NAME><OBJECT_ID>1998-008B</OBJECT_ID><CENTER_NAME>EARTH</CENTER_NAME><REF_FRAME>TEME</REF_FRAME><TIME_SYSTEM>UTC</TIME_SYSTEM><MEAN_ELEMENT_THEORY>SGP4</MEAN_ELEMENT_THEORY></metadata><data><meanElements><EPOCH>2025-10-12T15:00:44.578944</EPOCH><MEAN_MOTION>12.63405236</MEAN_MOTION><ECCENTRICITY>.00033175</ECCENTRICITY><INCLINATION>52.0010</INCLINATION><RA_OF_ASC_NODE>55.8703</RA_OF_ASC_NODE><ARG_OF_PERICENTER>177.7086</ARG_OF_PERICENTER><MEAN_ANOMALY>195.6558</MEAN_ANOMALY></meanElements><tleParameters><EPHEMERIS_TYPE>0</EPHEMERIS_TYPE><CLASSIFICATION_TYPE>U</CLASSIFICATION_TYPE><NORAD_CAT_ID>25163</NORAD_CAT_ID><ELEMENT_SET_NO>999</ELEMENT_SET_NO><REV_AT_EPOCH>27653</REV_AT_EPOCH><BSTAR>.11785103E-3</BSTAR><MEAN_MOTION_DOT>-.83E-6</MEAN_MOTION_DOT><MEAN_MOTION_DDOT>0</MEAN_MOTION_DDOT></tleParameters></data></segment></body></omm>
<omm id="CCSDS_OMM_VERS" version="2.0">
<header><CREATION_DATE/><ORIGINATOR/></header><body><segment><metadata><OBJECT_NAME>GLOBALSTAR M002</OBJECT_NAME><OBJECT_ID>1998-008C</OBJECT_ID><CENTER_NAME>EARTH</CENTER_NAME><REF_FRAME>TEME</REF_FRAME><TIME_SYSTEM>UTC</TIME_SYSTEM><MEAN_ELEMENT_THEORY>SGP4</MEAN_ELEMENT_THEORY></metadata><data><meanElements><EPOCH>2025-10-12T13:08:16.894464</EPOCH><MEAN_MOTION>11.61512449</MEAN_MOTION><ECCENTRICITY>.00014476</ECCENTRICITY><INCLINATION>52.0021</INCLINATION><RA_OF_ASC_NODE>305.9451</RA_OF_ASC_NODE><ARG_OF_PERICENTER>5.8918</ARG_OF_PERICENTER><MEAN_ANOMALY>354.1919</MEAN_ANOMALY></meanElements><tleParameters><EPHEMERIS_TYPE>0</EPHEMERIS_TYPE><CLASSIFICATION_TYPE>U</CLASSIFICATION_TYPE><NORAD_CAT_ID>25164</NORAD_CAT_ID><ELEMENT_SET_NO>999</ELEMENT_SET_NO><REV_AT_EPOCH>19770</REV_AT_EPOCH><BSTAR>.53954376E-3</BSTAR><MEAN_MOTION_DOT>-.49E-6</MEAN_MOTION_DOT><MEAN_MOTION_DDOT>0</MEAN_MOTION_DDOT></tleParameters></data></segment></body></omm>
<omm id="CCSDS_OMM_VERS" version="2.0">
<header><CREATION_DATE/><ORIGINATOR/></header><body><segment><metadata><OBJECT_NAME>GLOBALSTAR M003</OBJECT_NAME><OBJECT_ID>1998-008D</OBJECT_ID><CENTER_NAME>EARTH</CENTER_NAME><REF_FRAME>TEME</REF_FRAME><TIME_SYSTEM>UTC</TIME_SYSTEM><MEAN_ELEMENT_THEORY>SGP4</MEAN_ELEMENT_THEORY></metadata><data><meanElements><EPOCH>2025-10-12T11:50:38.119200</EPOCH><MEAN_MOTION>12.12055929</MEAN_MOTION><ECCENTRICITY>.00078079</ECCENTRICITY><INCLINATION>51.9934</INCLINATION><RA_OF_ASC_NODE>203.6270</RA_OF_ASC_NODE><ARG_OF_PERICENTER>163.5655</ARG_OF_PERICENTER><MEAN_ANOMALY>7.6554</MEAN_ANOMALY></meanElements><tleParameters><EPHEMERIS_TYPE>0</EPHEMERIS_TYPE><CLASSIFICATION_TYPE>U</CLASSIFICATION_TYPE><NORAD_CAT_ID>25165</NORAD_CAT_ID><ELEMENT_SET_NO>999</ELEMENT_SET_NO><REV_AT_EPOCH>24744</REV_AT_EPOCH><BSTAR>-.9938744E-3</BSTAR><MEAN_MOTION_DOT>-.183E-5</MEAN_MOTION_DOT><MEAN_MOTION_DDOT>0</MEAN_MOTION_DDOT></tleParameters></data></segment></body></omm>
<omm id="CCSDS_OMM_VERS" version="2.0">
<header><CREATION_DATE/><ORIGINATOR/></header><body><segment><metadata><OBJECT_NAME>GLOBALSTAR M014</OBJECT_NAME><OBJECT_ID>1998-023A</OBJECT_ID><CENTER_NAME>EARTH</CENTER_NAME><REF_FRAME>TEME</REF_FRAME><TIME_SYSTEM>UTC</TIME_SYSTEM><MEAN_ELEMENT_THEORY>SGP4</MEAN_ELEMENT_THEORY></metadata><data><meanElements><EPOCH>2025-10-12T13:27:12.264768</EPOCH><MEAN_MOTION>11.65482567</MEAN_MOTION><ECCENTRICITY>.00003603</ECCENTRICITY><INCLINATION>51.9827</INCLINATION><RA_OF_ASC_NODE>226.6648</RA_OF_ASC_NODE><ARG_OF_PERICENTER>194.8740</ARG_OF_PERICENTER><MEAN_ANOMALY>335.9574</MEAN_ANOMALY></meanElements><tleParameters><EPHEMERIS_TYPE>0</EPHEMERIS_TYPE><CLASSIFICATION_TYPE>U</CLASSIFICATION_TYPE><NORAD_CAT_ID>25306</NORAD_CAT_ID><ELEMENT_SET_NO>999</ELEMENT_SET_NO><REV_AT_EPOCH>20485</REV_AT_EPOCH><BSTAR>.48898463E-3</BSTAR><MEAN_MOTION_DOT>-.51E-6</MEAN_MOTION_DOT><MEAN_MOTION_DDOT>0</MEAN_MOTION_DDOT></tleParameters></data></segment></body></omm>
<omm id="CCSDS_OMM_VERS" version="2.0">
<header><CREATION_DATE/><ORIGINATOR/></header><body><segment><metadata><OBJECT_NAME>GLOBALSTAR M006</OBJECT_NAME><OBJECT_ID>1998-023B</OBJECT_ID><CENTER_NAME>EARTH</CENTER_NAME><REF_FRAME>TEME</REF_FRAME><TIME_SYSTEM>UTC</TIME_SYSTEM><MEAN_ELEMENT_THEORY>SGP4</MEAN_ELEMENT_THEORY></metadata><data><meanElements><EPOCH>2025-10-12T12:35:17.092032</EPOCH><MEAN_MOTION>11.58176903</MEAN_MOTION><ECCENTRICITY>.00031349</ECCENTRICITY><INCLINATION>51.9932</INCLINATION><RA_OF_ASC_NODE>283.6169</RA_OF_ASC_NODE><ARG_OF_PERICENTER>322.6719</ARG_OF_PERICENTER><MEAN_ANOMALY>183.4466</MEAN_ANOMALY></meanElements><tleParameters><EPHEMERIS_TYPE>0</EPHEMERIS_TYPE><CLASSIFICATION_TYPE>U</CLASSIFICATION_TYPE><NORAD_CAT_ID>25307</NORAD_CAT_ID><ELEMENT_SET_NO>999</ELEMENT_SET_NO><REV_AT_EPOCH>23042</REV_AT_EPOCH><BSTAR>.75778768E-3</BSTAR><MEAN_MOTION_DOT>-.39E-6</MEAN_MOTION_DOT><MEAN_MOTION_DDOT>0</MEAN_MOTION_DDOT></tleParameters></data></segment></body></omm>
<omm id="CCSDS_OMM_VERS" version="2.0">
<header><CREATION_DATE/><ORIGINATOR/></header><body><segment><metadata><OBJECT_NAME>GLOBALSTAR M015</OBJECT_NAME><OBJECT_ID>1998-023C</OBJECT_ID><CENTER_NAME>EARTH</CENTER_NAME><REF_FRAME>TEME</REF_FRAME><TIME_SYSTEM>UTC</TIME_SYSTEM><MEAN_ELEMENT_THEORY>SGP4</MEAN_ELEMENT_THEORY></metadata><data><meanElements><EPOCH>2025-10-12T13:58:53.732640</EPOCH><MEAN_MOTION>11.48859224</MEAN_MOTION><ECCENTRICITY>.0011854</ECCENTRICITY><INCLINATION>51.9854</INCLINATION><RA_OF_ASC_NODE>27.3195</RA_OF_ASC_NODE><ARG_OF_PERICENTER>284.0423</ARG_OF_PERICENTER><MEAN_ANOMALY>89.7405</MEAN_ANOMALY></meanElements><tleParameters><EPHEMERIS_TYPE>0</EPHEMERIS_TYPE><CLASSIFICATION_TYPE>U</CLASSIFICATION_TYPE><NORAD_CAT_ID>25308</NORAD_CAT_ID><ELEMENT_SET_NO>999</ELEMENT_SET_NO><REV_AT_EPOCH>20757</REV_AT_EPOCH><BSTAR>.70783076E-3</BSTAR><MEAN_MOTION_DOT>-.42E-6</MEAN_MOTION_DOT><MEAN_MOTION_DDOT>0</MEAN_MOTION_DDOT></tleParameters></data></segment></body></omm>
<omm id="CCSDS_OMM_VERS" version="2.0">
<header><CREATION_DATE/><ORIGINATOR/></header><body><segment><metadata><OBJECT_NAME>GLOBALSTAR M008</OBJECT_NAME><OBJECT_ID>1998-023D</OBJECT_ID><CENTER_NAME>EARTH</CENTER_NAME><REF_FRAME>TEME</REF_FRAME><TIME_SYSTEM>UTC</TIME_SYSTEM><MEAN_ELEMENT_THEORY>SGP4</MEAN_ELEMENT_THEORY></metadata><data><meanElements><EPOCH>2025-10-12T14:11:22.386912</EPOCH><MEAN_MOTION>12.36073913</MEAN_MOTION><ECCENTRICITY>.00033029</ECCENTRICITY><INCLINATION>51.9961</INCLINATION><RA_OF_ASC_NODE>217.6679</RA_OF_ASC_NODE><ARG_OF_PERICENTER>61.8194</ARG_OF_PERICENTER><MEAN_ANOMALY>109.7595</MEAN_ANOMALY></meanElements><tleParameters><EPHEMERIS_TYPE>0</EPHEMERIS_TYPE><CLASSIFICATION_TYPE>U</CLASSIFICATION_TYPE><NORAD_CAT_ID>25309</NORAD_CAT_ID><ELEMENT_SET_NO>999</ELEMENT_SET_NO><REV_AT_EPOCH>25236</REV_AT_EPOCH><BSTAR>.33923273E-3</BSTAR><MEAN_MOTION_DOT>-.53E-6</MEAN_MOTION_DOT><MEAN_MOTION_DDOT>0</MEAN_MOTION_DDOT></tleParameters></data></segment></body></omm>

</ndm>
